{
  "type": "FeatureCollection",
  "name": "buildings",
  "features": [
    {"type":"Feature","id":"A-001","properties":{"external_id":"A-001","name":"أصل تدريبي 1","review_status":"pending","version":1},"geometry":{"type":"Polygon","coordinates":[[[35.2055,31.893],[35.2067,31.893],[35.2067,31.8942],[35.2055,31.8942],[35.2055,31.893]]]}},
    {"type":"Feature","id":"A-002","properties":{"external_id":"A-002","name":"أصل تدريبي 2","review_status":"rejected","version":1},"geometry":{"type":"Polygon","coordinates":[[[35.209,31.894],[35.2102,31.894],[35.2102,31.8952],[35.209,31.8952],[35.209,31.894]]]}},
    {"type":"Feature","id":"A-003","properties":{"external_id":"A-003","name":"أصل تدريبي 3","review_status":"approved","version":1},"geometry":{"type":"Polygon","coordinates":[[[35.2125,31.892],[35.2137,31.892],[35.2137,31.8932],[35.2125,31.8932],[35.2125,31.892]]]}},
    {"type":"Feature","id":"A-004","properties":{"external_id":"A-004","name":"أصل تدريبي 4","review_status":"pending","version":1},"geometry":{"type":"Polygon","coordinates":[[[35.216,31.893],[35.2172,31.893],[35.2172,31.8942],[35.216,31.8942],[35.216,31.893]]]}},
    {"type":"Feature","id":"A-005","properties":{"external_id":"A-005","name":"أصل تدريبي 5","review_status":"rejected","version":1},"geometry":{"type":"Polygon","coordinates":[[[35.2195,31.894],[35.2207,31.894],[35.2207,31.8952],[35.2195,31.8952],[35.2195,31.894]]]}},
    {"type":"Feature","id":"A-006","properties":{"external_id":"A-006","name":"أصل تدريبي 6","review_status":"approved","version":1},"geometry":{"type":"Polygon","coordinates":[[[35.223,31.892],[35.2242,31.892],[35.2242,31.8932],[35.223,31.8932],[35.223,31.892]]]}},
    {"type":"Feature","id":"A-007","properties":{"external_id":"A-007","name":"أصل تدريبي 7","review_status":"pending","version":1},"geometry":{"type":"Polygon","coordinates":[[[35.2265,31.893],[35.2277,31.893],[35.2277,31.8942],[35.2265,31.8942],[35.2265,31.893]]]}},
    {"type":"Feature","id":"A-008","properties":{"external_id":"A-008","name":"أصل تدريبي 8","review_status":"rejected","version":1},"geometry":{"type":"Polygon","coordinates":[[[35.23,31.894],[35.2312,31.894],[35.2312,31.8952],[35.23,31.8952],[35.23,31.894]]]}},
    {"type":"Feature","id":"A-009","properties":{"external_id":"A-009","name":"أصل تدريبي 9","review_status":"approved","version":1},"geometry":{"type":"Polygon","coordinates":[[[35.2335,31.892],[35.2347,31.892],[35.2347,31.8932],[35.2335,31.8932],[35.2335,31.892]]]}},
    {"type":"Feature","id":"A-010","properties":{"external_id":"A-010","name":"أصل تدريبي 10","review_status":"pending","version":1},"geometry":{"type":"Polygon","coordinates":[[[35.202,31.901],[35.2032,31.901],[35.2032,31.9022],[35.202,31.9022],[35.202,31.901]]]}},
    {"type":"Feature","id":"A-011","properties":{"external_id":"A-011","name":"أصل تدريبي 11","review_status":"rejected","version":1},"geometry":{"type":"Polygon","coordinates":[[[35.2055,31.902],[35.2067,31.902],[35.2067,31.9032],[35.2055,31.9032],[35.2055,31.902]]]}},
    {"type":"Feature","id":"A-012","properties":{"external_id":"A-012","name":"أصل تدريبي 12","review_status":"approved","version":1},"geometry":{"type":"Polygon","coordinates":[[[35.209,31.9],[35.2102,31.9],[35.2102,31.9012],[35.209,31.9012],[35.209,31.9]]]}},
    {"type":"Feature","id":"A-013","properties":{"external_id":"A-013","name":"أصل تدريبي 13","review_status":"pending","version":1},"geometry":{"type":"Polygon","coordinates":[[[35.2125,31.901],[35.2137,31.901],[35.2137,31.9022],[35.2125,31.9022],[35.2125,31.901]]]}},
    {"type":"Feature","id":"A-014","properties":{"external_id":"A-014","name":"أصل تدريبي 14","review_status":"rejected","version":1},"geometry":{"type":"Polygon","coordinates":[[[35.216,31.902],[35.2172,31.902],[35.2172,31.9032],[35.216,31.9032],[35.216,31.902]]]}},
    {"type":"Feature","id":"A-015","properties":{"external_id":"A-015","name":"أصل تدريبي 15","review_status":"approved","version":1},"geometry":{"type":"Polygon","coordinates":[[[35.2195,31.9],[35.2207,31.9],[35.2207,31.9012],[35.2195,31.9012],[35.2195,31.9]]]}},
    {"type":"Feature","id":"A-016","properties":{"external_id":"A-016","name":"أصل تدريبي 16","review_status":"pending","version":1},"geometry":{"type":"Polygon","coordinates":[[[35.223,31.901],[35.2242,31.901],[35.2242,31.9022],[35.223,31.9022],[35.223,31.901]]]}},
    {"type":"Feature","id":"A-017","properties":{"external_id":"A-017","name":"أصل تدريبي 17","review_status":"rejected","version":1},"geometry":{"type":"Polygon","coordinates":[[[35.2265,31.902],[35.2277,31.902],[35.2277,31.9032],[35.2265,31.9032],[35.2265,31.902]]]}},
    {"type":"Feature","id":"A-018","properties":{"external_id":"A-018","name":"أصل تدريبي 18","review_status":"approved","version":1},"geometry":{"type":"Polygon","coordinates":[[[35.23,31.9],[35.2312,31.9],[35.2312,31.9012],[35.23,31.9012],[35.23,31.9]]]}},
    {"type":"Feature","id":"A-019","properties":{"external_id":"A-019","name":"أصل تدريبي 19","review_status":"pending","version":1},"geometry":{"type":"Polygon","coordinates":[[[35.2335,31.901],[35.2347,31.901],[35.2347,31.9022],[35.2335,31.9022],[35.2335,31.901]]]}},
    {"type":"Feature","id":"A-020","properties":{"external_id":"A-020","name":"أصل تدريبي 20","review_status":"rejected","version":1},"geometry":{"type":"Polygon","coordinates":[[[35.202,31.91],[35.2032,31.91],[35.2032,31.9112],[35.202,31.9112],[35.202,31.91]]]}}
  ]
}
