{
  "type": "FeatureCollection",
  "name": "zones",
  "crs": {
    "type": "name",
    "properties": {
      "name": "urn:ogc:def:crs:OGC:1.3:CRS84"
    }
  },
  "features": [
    {
      "type": "Feature",
      "id": "Z-A",
      "properties": {
        "zone_id": "Z-A",
        "name": "منطقة ألف"
      },
      "geometry": {
        "type": "Polygon",
        "coordinates": [
          [
            [35.2,31.89],[35.22,31.89],[35.22,31.91],[35.2,31.91],[35.2,31.89]
          ]
        ]
      }
    },
    {
      "type": "Feature",
      "id": "Z-B",
      "properties": {
        "zone_id": "Z-B",
        "name": "منطقة باء"
      },
      "geometry": {
        "type": "Polygon",
        "coordinates": [
          [
            [35.22,31.89],[35.24,31.89],[35.24,31.91],[35.22,31.91],[35.22,31.89]
          ]
        ]
      }
    }
  ]
}